NORAD_CAT_ID,OBJECT_NAME,OBJECT_TYPE,EPOCH,MEAN_MOTION,ECCENTRICITY,INCLINATION,RA_OF_ASC_NODE,ARG_OF_PERICENTER,MEAN_ANOMALY,BSTAR,MEAN_MOTION_DOT,MEAN_MOTION_DDOT,TLE_LINE0,TLE_LINE1,TLE_LINE2,SEMIMAJOR_AXIS,PERIOD,APOGEE,PERIGEE,DECAYED
52672.0,STARLINK-4073,PAYLOAD,2023-01-12 22:31:07,15.08843339,0.0002818,53.2158,284.5454,28.2899,331.8246,2.583e-05,1.23e-06,0.0,0 STARLINK-4073,1 52672U 22053S   23012.93827696  .00000123  00000-0  25830-4 0  9990,2 52672  53.2158 284.5454 0002818  28.2899 331.8246 15.08843339 37165,6917.87,95.437,541.685,537.786,0.0
52672.0,STARLINK-4073,PAYLOAD,2023-01-13 00:06:30,15.08842707,0.000276,53.2172,284.2492,27.6658,332.4480000000001,7.589e-05,9.2e-06,0.0,0 STARLINK-4073,1 52672U 22053S   23013.00451849  .00000920  00000-0  75890-4 0  9998,2 52672  53.2172 284.2492 0002760  27.6658 332.4480 15.08842707 36740,6917.871999999999,95.437,541.646,537.828,0.0
52672.0,STARLINK-4073,PAYLOAD,2023-01-13 01:41:53,15.08852147,0.000287,53.2162,283.9515,27.9306,332.184,0.00014091,1.956e-05,0.0,0 STARLINK-4073,1 52672U 22053S   23013.07075378  .00001956  00000-0  14091-3 0  9999,2 52672  53.2162 283.9515 0002870  27.9306 332.1840 15.08852147 36753,6917.843000000002,95.437,541.694,537.7230000000002,0.0
52672.0,STARLINK-4073,PAYLOAD,2023-01-13 20:46:32,15.08826577,0.0002914,53.2156,280.3833,30.3007,329.8153,-0.00015785,-2.799e-05,0.0,0 STARLINK-4073,1 52672U 22053S   23013.86565197 -.00002799  00000-0 -15785-3 0  9998,2 52672  53.2156 280.3833 0002914  30.3007 329.8153 15.08826577 37305,6917.920999999999,95.438,541.802,537.771,0.0
52672.0,STARLINK-4073,PAYLOAD,2023-01-14 03:08:04,15.08850869,0.0002898,53.2137,279.1929,40.8412,319.2796,0.00027,4.013e-05,0.0,0 STARLINK-4073,1 52672U 22053S   23014.13060284  .00004013  00000-0  27000-3 0  9998,2 52672  53.2137 279.1929 0002898  40.8412 319.2796 15.08850869 36916,6917.847,95.437,541.717,537.707,0.0
52672.0,STARLINK-4073,PAYLOAD,2023-01-14 17:26:33,15.08804009,0.000204,53.217,276.5172,34.7041,325.4083,-0.0003821,-6.358e-05,0.0,0 STARLINK-4073,1 52672U 22053S   23014.72678068 -.00006358  00000-0 -38210-3 0  9999,2 52672  53.2170 276.5172 0002040  34.7041 325.4083 15.08804009 37007,6917.99,95.44,541.2669999999999,538.444,0.0
52672.0,STARLINK-4073,PAYLOAD,2023-01-15 02:58:52,15.088208300000002,0.0002454,53.2151,274.7336,48.7313,311.389,-0.00023335,-3.998e-05,0.0,0 STARLINK-4073,1 52672U 22053S   23015.12421933 -.00003998  00000-0 -23335-3 0  9990,2 52672  53.2151 274.7336 0002454  48.7313 311.3890 15.08820830 37060,6917.939,95.439,541.502,538.106,0.0
52672.0,STARLINK-4073,PAYLOAD,2023-01-15 17:17:21,15.08828814,0.0001978,53.2154,272.0567,43.42,316.6948,0.0001558,2.192e-05,0.0,0 STARLINK-4073,1 52672U 22053S   23015.72038200  .00002192  00000-0  15580-3 0  9993,2 52672  53.2154 272.0567 0001978  43.4200 316.6948 15.08828814 37159,6917.915,95.438,541.148,538.411,0.0
52672.0,STARLINK-4073,PAYLOAD,2023-01-15 22:03:29,15.08846487,0.0001903,53.2174,271.1654,60.1421,299.976,0.00054156,8.343e-05,0.0,0 STARLINK-4073,1 52672U 22053S   23015.91909645  .00008343  00000-0  54156-3 0  9990,2 52672  53.2174 271.1654 0001903  60.1421 299.9760 15.08846487 37619,6917.861,95.437,541.0419999999999,538.409,0.0
52672.0,STARLINK-4073,PAYLOAD,2023-01-15 23:38:52,15.0885512,0.0002036,53.2154,270.8676,49.5704,310.5465,0.00061796,9.565e-05,0.0,0 STARLINK-4073,1 52672U 22053S   23015.98533392  .00009565  00000-0  61796-3 0  9994,2 52672  53.2154 270.8676 0002036  49.5704 310.5465 15.08855120 37199,6917.834,95.437,541.1080000000001,538.2909999999999,0.0
52672.0,STARLINK-4073,PAYLOAD,2023-01-16 17:08:08,15.08827639,0.0001663,53.2153,267.597,62.4984,297.6177,0.00026359,3.908e-05,0.0,0 STARLINK-4073,1 52672U 22053S   23016.71398889  .00003908  00000-0  26359-3 0  9997,2 52672  53.2153 267.5970 0001663  62.4984 297.6177 15.08827639 37309,6917.918000000001,95.438,540.934,538.633,0.0
52672.0,STARLINK-4073,PAYLOAD,2023-01-17 09:02:00,15.08827391,0.0001581,53.2147,264.6214,71.3497,288.7667,0.00021377,3.115e-05,0.0,0 STARLINK-4073,1 52672U 22053S   23017.37639065  .00003115  00000-0  21377-3 0  9999,2 52672  53.2147 264.6214 0001581  71.3497 288.7667 15.08827391 37836,6917.919,95.438,540.878,538.69,0.0
52672.0,STARLINK-4073,PAYLOAD,2023-01-17 21:45:05,15.08830991,0.000195,53.2151,262.2423,67.3256,292.7942,8.6292e-05,1.085e-05,0.0,0 STARLINK-4073,1 52672U 22053S   23017.90631229  .00001085  00000-0  86292-4 0  9994,2 52672  53.2151 262.2423 0001950  67.3256 292.7942 15.08830991 37915,6917.908,95.438,541.122,538.424,0.0
52672.0,STARLINK-4073,PAYLOAD,2023-01-18 02:31:14,15.08836359,0.0001886999999999,53.2152,261.3502,69.3112,290.8082,0.00029898,4.473e-05,0.0,0 STARLINK-4073,1 52672U 22053S   23018.10503258  .00004473  00000-0  29898-3 0  9999,2 52672  53.2152 261.3502 0001887  69.3112 290.8082 15.08836359 37510,6917.892,95.438,541.062,538.451,0.0
52672.0,STARLINK-4073,PAYLOAD,2023-01-18 21:35:52,15.08850173,0.0001493,53.2142,257.7824,81.8269,278.2892,0.00045855,7.019e-05,0.0,0 STARLINK-4073,1 52672U 22053S   23018.89990982  .00007019  00000-0  45855-3 0  9999,2 52672  53.2142 257.7824 0001493  81.8269 278.2892 15.08850173 38060,6917.849,95.437,540.747,538.681,0.0
52672.0,STARLINK-4073,PAYLOAD,2023-01-19 00:46:38,15.08860703,0.000158,53.2151,257.1871,83.9051,276.2121,0.00070838,0.0001100999999999,0.0,0 STARLINK-4073,1 52672U 22053S   23019.03238662  .00011010  00000-0  70838-3 0  9991,2 52672  53.2151 257.1871 0001580  83.9051 276.2121 15.08860703 37652,6917.816999999999,95.436,540.775,538.589,0.0
52672.0,STARLINK-4073,PAYLOAD,2023-01-19 08:43:33,15.08841712,0.0001284,53.2151,255.7003,88.1728,271.9411,-3.4977e-05,-8.45e-06,0.0,0 STARLINK-4073,1 52672U 22053S   23019.36358775 -.00000845  00000-0 -34977-4 0  9996,2 52672  53.2151 255.7003 0001284  88.1728 271.9411 15.08841712 37701,6917.875,95.437,540.628,538.852,0.0
52672.0,STARLINK-4073,PAYLOAD,2023-01-19 16:40:30,15.08831754,0.0001384,53.2132,254.2152,97.3268,262.7881,-0.00015191,-2.704e-05,0.0,0 STARLINK-4073,1 52672U 22053S   23019.69479306 -.00002704  00000-0 -15191-3 0  9998,2 52672  53.2132 254.2152 0001384  97.3268 262.7881 15.08831754 37750,6917.906,95.438,540.7280000000001,538.813,0.0
52672.0,STARLINK-4073,PAYLOAD,2023-01-20 08:34:21,15.08835534,0.0001159,53.2125,251.241,100.6872,259.425,0.00055918,8.622e-05,0.0,0 STARLINK-4073,1 52672U 22053S   23020.35719693  .00008622  00000-0  55918-3 0  9993,2 52672  53.2125 251.2410 0001159 100.6872 259.4250 15.08835534 38287,6917.894,95.438,540.561,538.957,0.0
52672.0,STARLINK-4073,PAYLOAD,2023-01-20 19:42:03,15.08844895,0.0001313,53.2125,249.1597,96.5744,263.5397,0.00067805,0.00010521,0.0,0 STARLINK-4073,1 52672U 22053S   23020.82087775  .00010521  00000-0  67805-3 0  9993,2 52672  53.2125 249.1597 0001313  96.5744 263.5397 15.08844895 37920,6917.865,95.437,540.639,538.822,0.0
52672.0,STARLINK-4073,PAYLOAD,2023-01-21 14:46:41,15.08851233,0.0001302,53.2122,245.5913,93.6854,266.4287,0.00048711,7.475e-05,0.0,0 STARLINK-4073,1 52672U 22053S   23021.61575519  .00007475  00000-0  48711-3 0  9998,2 52672  53.2122 245.5913 0001302  93.6854 266.4287 15.08851233 38045,6917.846,95.437,540.612,538.81,0.0
52672.0,STARLINK-4073,PAYLOAD,2023-01-22 08:15:55,15.08847771,0.0001717,53.2133,242.3227,63.3842,296.7326,0.00023369,3.434e-05,0.0,0 STARLINK-4073,1 52672U 22053S   23022.34439496  .00003434  00000-0  23369-3 0  9995,2 52672  53.2133 242.3227 0001717  63.3842 296.7326 15.08847771 38155,6917.857,95.437,540.909,538.534,0.0
52672.0,STARLINK-4073,PAYLOAD,2023-01-23 00:09:47,15.08841548,0.0001535,53.2139,239.3454,88.9362,271.1806,4.5653000000000005e-05,4.39e-06,0.0,0 STARLINK-4073,1 52672U 22053S   23023.00679656  .00000439  00000-0  45653-4 0  9996,2 52672  53.2139 239.3454 0001535  88.9362 271.1806 15.08841548 38254,6917.876,95.437,540.803,538.679,0.0
52672.0,STARLINK-4073,PAYLOAD,2023-01-24 09:32:52,15.08840739,0.0001252999999999,53.2126,233.0981,95.4952,264.6183,0.00014844,2.075e-05,0.0,0 STARLINK-4073,1 52672U 22053S   23024.39783496  .00002075  00000-0  14844-3 0  9992,2 52672  53.2126 233.0981 0001253  95.4952 264.6183 15.08840739 38460,6917.878000000001,95.438,540.61,538.876,0.0
52672.0,STARLINK-4073,PAYLOAD,2023-01-25 09:23:40,15.08839212,0.0001200999999999,53.2129,228.6384,93.1216,266.9913,5.2378e-05,5.46e-06,0.0,0 STARLINK-4073,1 52672U 22053S   23025.39143532  .00000546  00000-0  52378-4 0  9990,2 52672  53.2129 228.6384 0001201  93.1216 266.9913 15.08839212 39046,6917.883000000001,95.438,540.5790000000001,538.9169999999999,0.0
52672.0,STARLINK-4073,PAYLOAD,2023-01-25 20:31:21,15.08843054,0.00011,53.2131,226.5571,92.8045,267.3073,2.6432e-05,1.33e-06,0.0,0 STARLINK-4073,1 52672U 22053S   23025.85511315  .00000133  00000-0  26432-4 0  9993,2 52672  53.2131 226.5571 0001100  92.8045 267.3073 15.08843054 38688,6917.871,95.437,540.497,538.975,0.0
52672.0,STARLINK-4073,PAYLOAD,2023-01-26 12:25:13,15.08836938,0.0001202,53.2132,223.5834,89.2384,270.8746,4.7733e-05,4.72e-06,0.0,0 STARLINK-4073,1 52672U 22053S   23026.51751682  .00000472  00000-0  47733-4 0  9993,2 52672  53.2132 223.5834 0001202  89.2384 270.8746 15.08836938 39216,6917.89,95.438,540.586,538.923,0.0
52672.0,STARLINK-4073,PAYLOAD,2023-01-26 20:22:09,15.08835667,0.0001149999999999,53.2142,222.0967,87.3047,272.8077,0.00014728,2.057e-05,0.0,0 STARLINK-4073,1 52672U 22053S   23026.84871986  .00002057  00000-0  14728-3 0  9997,2 52672  53.2142 222.0967 0001150  87.3047 272.8077 15.08835667 38839,6917.894,95.438,540.554,538.9630000000001,0.0
52672.0,STARLINK-4073,PAYLOAD,2023-01-27 07:29:51,15.08839142,0.000117,53.2143,220.0151,89.964,270.1486,6.933300000000001e-05,8.16e-06,0.0,0 STARLINK-4073,1 52672U 22053S   23027.31239834  .00000816  00000-0  69333-4 0  9994,2 52672  53.2143 220.0151 0001170  89.9640 270.1486 15.08839142 39335,6917.883000000001,95.438,540.557,538.939,0.0
